     2.11           N: GPS NAV DATA                         RINEX VERSION / TYPE
teqc  2019Feb25                         20230219 23:13:41UTCPGM / RUN BY / DATE
Linux2.6.32-573.12.1.el6.x86_64|x86_64|gcc|Win64-MinGW64|=+ COMMENT
                                                            END OF HEADER
 1 22 10 31 10  0  0.0 2.589793875813D-04-5.798028723802D-12 0.000000000000D+00
    9.000000000000D+00 1.656250000000D+00 3.953736005258D-09 2.848857777859D+00
   -7.636845111847D-08 1.203091640491D-02 2.795830368996D-06 5.153659255981D+03
    1.224000000000D+05-7.636845111847D-08-2.582344602732D-01-1.341104507446D-07
    9.891223254865D-01 3.402187500000D+02 9.429140815506D-01-7.849255467818D-09
    8.464638018291D-11 1.000000000000D+00 2.234000000000D+03 0.000000000000D+00
    2.000000000000D+00 0.000000000000D+00 4.656612873077D-09 9.000000000000D+00
    1.170600000000D+05
 3 22 10 31 10  0  0.0-3.695487976074D-04-2.955857780762D-12 0.000000000000D+00
    1.100000000000D+02-1.120000000000D+02 4.101956552205D-09 1.741094175675D+00
   -5.876645445824D-06 4.443407640792D-03 6.344169378281D-06 5.153790096283D+03
    1.224000000000D+05-7.078051567078D-08 7.737614020168D-01-4.842877388000D-08
    9.759439659035D-01 2.652187500000D+02 1.054740747900D+00-7.906400867341D-09
    9.286101401718D-12 1.000000000000D+00 2.234000000000D+03 0.000000000000D+00
    4.000000000000D+00 0.000000000000D+00 1.862645149231D-09 1.100000000000D+02
    1.170600000000D+05
 4 22 10 31 10  0  0.0-9.456695988774D-05 6.480149750132D-12 0.000000000000D+00
    8.400000000000D+01-4.212500000000D+01 4.478043713618D-09-1.526785328760D+00
   -2.240762114525D-06 2.123964484781D-03 9.162351489067D-06 5.153738267899D+03
    1.224000000000D+05 2.048909664154D-08 1.855416182354D+00-1.862645149231D-09
    9.615983454480D-01 2.035937500000D+02-3.115915408669D+00-7.811753910403D-09
    2.771544105329D-10 1.000000000000D+00 2.234000000000D+03 0.000000000000D+00
    2.000000000000D+00 0.000000000000D+00-4.656612873077D-09 8.400000000000D+01
    1.170600000000D+05
 6 22 10 31 10  0  0.0 5.061654374003D-04 1.000444171950D-11 0.000000000000D+00
    5.100000000000D+01-1.059375000000D+01 4.042668422244D-09 3.113889600675D+00
   -4.433095455170D-07 2.556625520810D-03 3.091990947723D-06 5.153550167084D+03
    1.224000000000D+05 2.235174179077D-08-2.665116975791D-01 1.098960638046D-07
    9.884079708851D-01 3.333125000000D+02-9.148632140108D-01-7.986047378949D-09
    1.039329039498D-10 1.000000000000D+00 2.234000000000D+03 0.000000000000D+00
    2.000000000000D+00 0.000000000000D+00 3.725290298462D-09 5.100000000000D+01
    1.170600000000D+05
 9 22 10 31  9 59 44.0-2.755671739578D-04 5.456968210638D-12 0.000000000000D+00
    5.700000000000D+01-4.634375000000D+01 4.695909883168D-09-7.995979821226D-01
   -2.462416887283D-06 2.617369289510D-03 8.985400199890D-06 5.153730714798D+03
    1.223840000000D+05 1.862645149231D-09 1.800373336639D+00 3.725290298462D-09
    9.547273132762D-01 2.034375000000D+02 1.923390903511D+00-7.974618299045D-09
    2.453673653147D-10 1.000000000000D+00 2.234000000000D+03 0.000000000000D+00
    2.000000000000D+00 0.000000000000D+00 9.313225746155D-10 5.700000000000D+01
    1.170600000000D+05
17 22 10 31 10  0  0.0 6.737713702023D-04 3.410605131648D-12 0.000000000000D+00
    4.500000000000D+01 8.059375000000D+01 4.192317604179D-09-1.177175802737D+00
    4.477798938751D-06 1.385082560591D-02 6.992369890213D-06 5.153649221420D+03
    1.224000000000D+05-2.272427082062D-07-1.258371391488D+00 1.974403858185D-07
    9.767526187414D-01 2.592187500000D+02-1.466261604870D+00-8.083193669961D-09
    8.786080196721D-11 1.000000000000D+00 2.234000000000D+03 0.000000000000D+00
    2.000000000000D+00 0.000000000000D+00-1.117587089539D-08 4.500000000000D+01
    1.170600000000D+05
19 22 10 31  9 59 44.0 2.310671843588D-04 5.115907697473D-12 0.000000000000D+00
    1.000000000000D+00 7.434375000000D+01 4.199817826844D-09 9.381616941545D-01
    3.812834620476D-06 9.040391654707D-03 6.210058927536D-06 5.153732414246D+03
    1.223840000000D+05 5.774199962616D-08-1.213670488602D+00-1.955777406693D-07
    9.757060149633D-01 2.668125000000D+02 2.203312422109D+00-8.036406207168D-09
    6.928860263322D-11 1.000000000000D+00 2.234000000000D+03 0.000000000000D+00
    2.000000000000D+00 0.000000000000D+00-1.536682248116D-08 1.000000000000D+00
    1.170600000000D+05
21 22 10 31 10  0  0.0 1.570167951286D-04-6.821210263297D-13 0.000000000000D+00
    1.900000000000D+01 9.656250000000D+00 4.759483918093D-09-1.192003893575D+00
    4.284083843231D-07 2.442100003827D-02 3.619119524956D-06 5.153686811447D+03
    1.224000000000D+05-4.116445779800D-07-3.561016521717D-01-1.974403858185D-07
    9.612607580833D-01 3.189375000000D+02-8.761900105223D-01-8.694647668506D-09
    3.600149900418D-10 1.000000000000D+00 2.234000000000D+03 0.000000000000D+00
    2.000000000000D+00 0.000000000000D+00-1.024454832077D-08 1.900000000000D+01
    1.170600000000D+05
31 22 10 31  9 59 44.0-1.986310817301D-04-1.250555214938D-12 0.000000000000D+00
    3.200000000000D+01 1.234375000000D+01 4.835201572462D-09 1.679867150993D+00
    7.841736078262D-07 1.067710027564D-02 7.953494787216D-06 5.153599824905D+03
    1.223840000000D+05-1.285225152969D-07 2.891179200601D+00 8.009374141693D-08
    9.550326974253D-01 2.288750000000D+02 4.548557805804D-01-8.046764143899D-09
   -1.842933861074D-10 1.000000000000D+00 2.234000000000D+03 0.000000000000D+00
    2.000000000000D+00 0.000000000000D+00-1.350417733192D-08 3.200000000000D+01
    1.170600000000D+05
11 22 10 31 10  0  0.0-3.280397504568D-05-5.229594535194D-12 0.000000000000D+00
    1.980000000000D+02-1.993750000000D+01 4.529831620914D-09-1.659973148933D+00
   -9.480863809586D-07 7.934228051454D-04 3.235414624214D-06 5.153663850784D+03
    1.224000000000D+05 8.381903171539D-08-2.204867499639D-01 1.862645149231D-09
    9.644113657530D-01 3.180312500000D+02-2.968195696145D+00-8.291416442319D-09
    7.071723068242D-11 1.000000000000D+00 2.234000000000D+03 0.000000000000D+00
    2.000000000000D+00 0.000000000000D+00-8.847564458847D-09 4.540000000000D+02
    1.178700000000D+05
 3 22 10 31  9 59 44.0-3.695497289300D-04-2.955857780762D-12 0.000000000000D+00
    1.800000000000D+01-1.120000000000D+02 4.101599504480D-09 1.738761119774D+00
   -5.876645445824D-06 4.443408921361D-03 6.344169378281D-06 5.153790084839D+03
    1.223840000000D+05-7.078051567078D-08 7.737615249019D-01-4.842877388000D-08
    9.759439732181D-01 2.652187500000D+02 1.054740225638D+00-7.906400867341D-09
    9.286101401718D-12 1.000000000000D+00 2.234000000000D+03 0.000000000000D+00
    2.000000000000D+00 0.000000000000D+00 1.862645149231D-09 1.800000000000D+01
    1.191600000000D+05
 7 22 10 31 10  0  0.0 2.929335460067D-04-4.206412995700D-12 0.000000000000D+00
    4.800000000000D+01 1.143750000000D+01 4.876274495302D-09 2.226421562618D+00
    3.147870302200D-07 1.643440267071D-02 7.644295692444D-06 5.153617692947D+03
    1.224000000000D+05-1.266598701477D-07 2.872052772640D+00-3.632158041000D-07
    9.508713143041D-01 2.266562500000D+02-2.239103878864D+00-7.909258137317D-09
    1.071473205300D-11 1.000000000000D+00 2.234000000000D+03 0.000000000000D+00
    2.000000000000D+00 0.000000000000D+00-1.117587089539D-08 4.800000000000D+01
    1.197300000000D+05
26 22 10 31 10  0  0.0 2.343212254345D-04 1.250555214938D-12 0.000000000000D+00
    7.200000000000D+01 4.900000000000D+01 5.014851645058D-09 5.960691795768D-01
    2.641230821609D-06 7.369783008471D-03 7.944181561470D-06 5.153582178116D+03
    1.224000000000D+05 4.842877388000D-08-2.429087594597D+00 1.117587089539D-07
    9.360349565160D-01 2.111562500000D+02 3.867549558849D-01-8.252129646280D-09
   -4.171602230318D-10 1.000000000000D+00 2.234000000000D+03 0.000000000000D+00
    2.000000000000D+00 0.000000000000D+00 6.984919309616D-09 7.200000000000D+01
    1.207800000000D+05
20 22 10 31 10  0  0.0 4.739551804960D-04-3.069544618484D-12 0.000000000000D+00
    2.600000000000D+01-8.853125000000D+01 4.840201572875D-09-2.368473637920D+00
   -4.576519131660D-06 4.775366163813D-03 5.807727575302D-06 5.153684661865D+03
    1.224000000000D+05-8.754432201385D-08 6.112335016545D-01-1.545995473862D-07
    9.454838595407D-01 2.567187500000D+02-3.053314273812D+00-8.276773044713D-09
    2.071514834667D-11 1.000000000000D+00 2.234000000000D+03 0.000000000000D+00
    2.800000000000D+00 0.000000000000D+00-8.381903171539D-09 2.600000000000D+01
    1.214700000000D+05
 6 22 10 31 12  0  0.0 5.062376148999D-04 1.000444171950D-11 0.000000000000D+00
    5.600000000000D+01 1.843750000000D+00 4.091956107288D-09-2.119192675167D+00
    2.346932888031D-07 2.558201784268D-03 3.324821591377D-06 5.153547210693D+03
    1.296000000000D+05-1.043081283569D-07-2.665692268326D-01 9.872019290924D-08
    9.884085970140D-01 3.304062500000D+02-9.147116937336D-01-8.030691667216D-09
    1.185763709444D-10 1.000000000000D+00 2.234000000000D+03 0.000000000000D+00
    2.000000000000D+00 0.000000000000D+00 3.725290298462D-09 5.600000000000D+01
    1.224300000000D+05
26 22 10 31 12  0  0.0 2.343300729990D-04 1.250555214938D-12 0.000000000000D+00
    7.500000000000D+01 5.018750000000D+01 5.037352757142D-09 1.646230993889D+00
    2.700835466385D-06 7.370108389296D-03 8.396804332733D-06 5.153583442688D+03
    1.296000000000D+05-2.235174179077D-08-2.429146800355D+00 9.685754776001D-08
    9.360318112421D-01 2.066875000000D+02 3.868331049687D-01-8.230699677370D-09
   -4.385896923420D-10 1.000000000000D+00 2.234000000000D+03 0.000000000000D+00
    2.000000000000D+00 0.000000000000D+00 6.984919309616D-09 7.500000000000D+01
    1.224300000000D+05
